ONEWEB-0020             
1 45133U 20008C   24349.42491936 -.00000314  00000+0 -93628-3 0  9996
2 45133  87.8895 145.7556 0001605 104.9358 255.1948 13.10379406237121
ONEWEB-0021             
1 45134U 20008D   24349.13444715  .00000469  00000+0  13062-2 0  9990
2 45134  87.8894 145.8376 0001467  89.9471 270.1824 13.10371149237481
ONEWEB-0023             
1 45136U 20008F   24348.45963613  .00000109  00000+0  27471-3 0  9990
2 45136  87.8892 145.9593 0001852  96.9388 263.1950 13.10389899235959
ONEWEB-0024             
1 45137U 20008G   24349.19418460  .00000481  00000+0  13407-2 0  9994
2 45137  87.8885 145.7825 0001415  93.6655 266.4634 13.10377178236968
ONEWEB-0026             
1 45139U 20008J   24349.13514278 -.00000340  00000+0 -99464-3 0  9998
2 45139  87.8901 130.6672 0001493 105.1715 254.9578 13.11417644239892
ONEWEB-0028             
1 45140U 20008K   24348.63244978  .00000412  00000+0  11261-2 0  9997
2 45140  87.8895 130.7996 0001863  82.2651 277.8688 13.11415986236464
ONEWEB-0032             
1 45141U 20008L   24348.69288140 -.00000395  00000+0 -11675-2 0  9994
2 45141  87.8886 145.9317 0001604  88.6496 271.4815 13.10370788237068
